NORAD_CAT_ID,OBJECT_NAME,OBJECT_TYPE,EPOCH,MEAN_MOTION,ECCENTRICITY,INCLINATION,RA_OF_ASC_NODE,ARG_OF_PERICENTER,MEAN_ANOMALY,BSTAR,MEAN_MOTION_DOT,MEAN_MOTION_DDOT,TLE_LINE0,TLE_LINE1,TLE_LINE2,SEMIMAJOR_AXIS,PERIOD,APOGEE,PERIGEE,DECAYED
54199.0,STARLINK-5244,PAYLOAD,2022-11-13 14:00:01,15.73095624,0.0002491,53.2176,62.0237,23.1864,125.3968,9.4917e-05,0.00012662,0.0,0 STARLINK-5244,1 54199U 22141AU  22317.58334491  .00012662  00000-0  94917-4 0  9991,2 54199  53.2176  62.0237 0002491  23.1864 125.3968 15.73095624  2866,6728.193,91.539,351.7340000000001,348.38199999999995,0.0
54199.0,STARLINK-5244,PAYLOAD,2022-11-13 22:00:00,15.73130433,0.0002481,53.2172,60.3741,21.7013,215.6808,0.00019979,0.00027429,0.0,0 STARLINK-5244,1 54199U 22141AU  22317.91667824  .00027429  00000-0  19979-3 0  9998,2 54199  53.2172  60.3741 0002481  21.7013 215.6808 15.73130433  1304,6728.094,91.537,351.62800000000016,348.289,0.0
54199.0,STARLINK-5244,PAYLOAD,2022-11-14 14:00:01,15.73211699,0.0002594,53.2174,57.0759,22.419,32.7253,0.00035512,0.00049542,0.0,0 STARLINK-5244,1 54199U 22141AU  22318.58334491  .00049542  00000-0  35512-3 0  9994,2 54199  53.2174  57.0759 0002594  22.4190  32.7253 15.73211699  3024,6727.861999999999,91.533,351.472,347.982,0.0
54199.0,STARLINK-5244,PAYLOAD,2022-11-14 22:00:00,15.73250728,0.0002568,53.2172,55.4239,19.313,124.7959,-0.00010878,-0.00015896,0.0,0 STARLINK-5244,1 54199U 22141AU  22318.91667824 -.00015896  00000-0 -10878-3 0  9995,2 54199  53.2172  55.4239 0002568  19.3130 124.7959 15.73250728  1307,6727.751,91.53,351.343,347.88800000000015,0.0
54199.0,STARLINK-5244,PAYLOAD,2022-11-15 06:00:00,15.73204596,0.00024,53.2179,53.7748,16.717,216.3578,0.00017189,0.00023577,0.0,0 STARLINK-5244,1 54199U 22141AU  22319.25001157  .00023577  00000-0  17189-3 0  9999,2 54199  53.2179  53.7748 0002400  16.7170 216.3578 15.73204596  3129,6727.882,91.533,351.362,348.13199999999995,0.0
54199.0,STARLINK-5244,PAYLOAD,2022-11-15 14:00:01,15.7323041,0.0002766,53.2178,52.1274,16.1255,305.8905,0.00011037,0.00014917,0.0,0 STARLINK-5244,1 54199U 22141AU  22319.58334491  .00014917  00000-0  11037-3 0  9999,2 54199  53.2178  52.1274 0002766  16.1255 305.8905 15.73230410  1308,6727.808000000001,91.531,351.534,347.81300000000016,0.0
54199.0,STARLINK-5244,PAYLOAD,2022-11-15 22:00:00,15.73244605,0.0002726,53.2176,50.4767,17.62,33.3695,-0.00025107,-0.00035783,0.0,0 STARLINK-5244,1 54199U 22141AU  22319.91667824 -.00035783  00000-0 -25107-3 0  9994,2 54199  53.2176  50.4767 0002726  17.6200  33.3695 15.73244605  1306,6727.768,91.531,351.467,347.7990000000001,0.0
54199.0,STARLINK-5244,PAYLOAD,2022-11-16 04:00:00,15.73231992,0.0002566,53.2174,49.2363,18.2831,9.4362,-0.00028195,-0.00040065,0.0,0 STARLINK-5244,1 54199U 22141AU  22320.16667824 -.00040065  00000-0 -28195-3 0  9992,2 54199  53.2174  49.2363 0002566  18.2831   9.4362 15.73231992  3279,6727.804,91.531,351.395,347.9430000000001,0.0
54199.0,STARLINK-5244,PAYLOAD,2022-11-16 14:00:01,15.73098743,0.0002722,53.2176,47.1748,14.9652,214.012,0.0011224,0.00159242,0.0,0 STARLINK-5244,1 54199U 22141AU  22320.58335648  .00159242  00000-0  11224-2 0  9994,2 54199  53.2176  47.1748 0002722  14.9652 214.0120 15.73098743  1306,6728.184,91.539,351.88,348.217,0.0
54199.0,STARLINK-5244,PAYLOAD,2022-11-16 22:00:08,15.73205318,0.0002684,53.2174,45.5228,13.5199,304.728,-1.5043e-05,-2.734e-05,0.0,0 STARLINK-5244,1 54199U 22141AU  22320.91675926 -.00002734  00000-0 -15043-4 0  9997,2 54199  53.2174  45.5228 0002684  13.5199 304.7280 15.73205318  1309,6727.88,91.533,351.551,347.939,0.0
54199.0,STARLINK-5244,PAYLOAD,2022-11-17 04:00:00,15.73152317,0.0002743,53.2179,44.2899,17.1959,277.3501,0.00040793,0.00056908,0.0,0 STARLINK-5244,1 54199U 22141AU  22321.16667824  .00056908  00000-0  40793-3 0  9992,2 54199  53.2179  44.2899 0002743  17.1959 277.3501 15.73152317  3420,6728.031,91.536,351.742,348.051,0.0
54199.0,STARLINK-5244,PAYLOAD,2022-11-17 14:00:01,15.73185778,0.0003104,53.2181,42.2303,18.4561,117.2219,0.00047494,0.00066534,0.0,0 STARLINK-5244,1 54199U 22141AU  22321.58334491  .00066534  00000-0  47494-3 0  9990,2 54199  53.2181  42.2303 0003104  18.4561 117.2219 15.73185778  1306,6727.936,91.534,351.889,347.712,0.0
54199.0,STARLINK-5244,PAYLOAD,2022-11-17 20:00:01,15.73154507,0.0003099,53.2171,40.9885,21.4888,90.8979,0.00050533,0.00070772,0.0,0 STARLINK-5244,1 54199U 22141AU  22321.83334491  .00070772  00000-0  50533-3 0  9995,2 54199  53.2171  40.9885 0003099  21.4888  90.8979 15.73154507  3536,6728.025,91.536,351.975,347.805,0.0
54199.0,STARLINK-5244,PAYLOAD,2022-11-17 22:00:00,15.73181514,0.0003048,53.2174,40.5751,22.3515,202.2516,0.00024973,0.00034549,0.0,0 STARLINK-5244,1 54199U 22141AU  22321.91667824  .00034549  00000-0  24973-3 0  9994,2 54199  53.2174  40.5751 0003048  22.3515 202.2516 15.73181514  1305,6727.948,91.534,351.86400000000015,347.76199999999994,0.0
54199.0,STARLINK-5244,PAYLOAD,2022-11-18 14:00:01,15.73173363,0.0003198,53.2181,37.282,20.3692,22.1832,0.00046726,0.00065405,0.0,0 STARLINK-5244,1 54199U 22141AU  22322.58334491  .00065405  00000-0  46726-3 0  9994,2 54199  53.2181  37.2820 0003198  20.3692  22.1832 15.73173363  3656,6727.971,91.535,351.98800000000006,347.685,0.0
54199.0,STARLINK-5244,PAYLOAD,2022-11-18 20:00:01,15.73255059,0.0003143,53.218,36.0441,17.9307,1.3032,-0.00078799,-0.00110071,0.0,0 STARLINK-5244,1 54199U 22141AU  22322.83334491 -.00110071  00000-0 -78799-3 0  9999,2 54199  53.2180  36.0441 0003143  17.9307   1.3032 15.73255059  3694,6727.738,91.53,351.718,347.48900000000015,0.0
54199.0,STARLINK-5244,PAYLOAD,2022-11-18 22:00:00,15.73225062,0.0003075,53.2184,35.6311,17.707,113.774,-0.00050521,-0.00071026,0.0,0 STARLINK-5244,1 54199U 22141AU  22322.91667824 -.00071026  00000-0 -50521-3 0  9996,2 54199  53.2184  35.6311 0003075  17.7070 113.7740 15.73225062  1309,6727.824000000001,91.532,351.7580000000001,347.62,0.0
54199.0,STARLINK-5244,PAYLOAD,2022-11-19 06:00:00,15.73229609,0.0002983,53.2187,33.9811,18.3929,202.0105,-0.00017209,-0.0002474,0.0,0 STARLINK-5244,1 54199U 22141AU  22323.25001157 -.00024740  00000-0 -17209-3 0  9992,2 54199  53.2187  33.9811 0002983  18.3929 202.0105 15.73229609  3754,6727.811,91.531,351.68300000000005,347.6690000000001,0.0
54199.0,STARLINK-5244,PAYLOAD,2022-11-19 14:00:01,15.73155064,0.0003316,53.2187,32.3337,15.8468,293.5141,0.00054381,0.00076263,0.0,0 STARLINK-5244,1 54199U 22141AU  22323.58334491  .00076263  00000-0  54381-3 0  9995,2 54199  53.2187  32.3337 0003316  15.8468 293.5141 15.73155064  1308,6728.023,91.536,352.119,347.657,0.0
54199.0,STARLINK-5244,PAYLOAD,2022-11-19 22:00:00,15.73246603,0.0003143999999999,53.2185,30.6828,13.6985,24.5856,-0.00044832,-0.00063215,0.0,0 STARLINK-5244,1 54199U 22141AU  22323.91667824 -.00063215  00000-0 -44832-3 0  9996,2 54199  53.2185  30.6828 0003144  13.6985  24.5856 15.73246603  1306,6727.762,91.53,351.74300000000005,347.51199999999994,0.0
54199.0,STARLINK-5244,PAYLOAD,2022-11-20 06:00:00,15.73209995,0.0003039,53.2185,29.0332,13.1471,114.0844,-1.733e-05,-3.056e-05,0.0,0 STARLINK-5244,1 54199U 22141AU  22324.25001157 -.00003056  00000-0 -17330-4 0  9996,2 54199  53.2185  29.0332 0003039  13.1471 114.0844 15.73209995  3910,6727.8669999999975,91.533,351.776,347.68699999999984,0.0
54199.0,STARLINK-5244,PAYLOAD,2022-11-20 14:00:01,15.73157545,0.0003362,53.2185,27.3857,10.1547,206.0313,0.00041631,0.00058116,0.0,0 STARLINK-5244,1 54199U 22141AU  22324.58334491  .00058116  00000-0  41631-3 0  9997,2 54199  53.2185  27.3857 0003362  10.1547 206.0313 15.73157545  1300,6728.016,91.536,352.14300000000014,347.619,0.0
54199.0,STARLINK-5244,PAYLOAD,2022-11-20 22:00:00,15.73215572,0.000321,53.2186,25.7346,11.1164,293.9682,-9.229e-05,-0.00013567,0.0,0 STARLINK-5244,1 54199U 22141AU  22324.91667824 -.00013567  00000-0 -92290-4 0  9994,2 54199  53.2186  25.7346 0003210  11.1164 293.9682 15.73215572  1303,6727.851,91.532,351.875,347.556,0.0
54199.0,STARLINK-5244,PAYLOAD,2022-11-21 14:00:01,15.73195719,0.0003574,53.2189,22.4375,16.1505,106.8104,0.00038525,0.00053797,0.0,0 STARLINK-5244,1 54199U 22141AU  22325.58334491  .00053797  00000-0  38525-3 0  9996,2 54199  53.2189  22.4375 0003574  16.1505 106.8104 15.73195719  4123,6727.906999999997,91.533,352.177,347.36800000000005,0.0
54199.0,STARLINK-5244,PAYLOAD,2022-11-21 20:00:01,15.73240665,0.0003448,53.2185,21.1991,14.1963,85.4683,-0.00055074,-0.00077372,0.0,0 STARLINK-5244,1 54199U 22141AU  22325.83334491 -.00077372  00000-0 -55074-3 0  9999,2 54199  53.2185  21.1991 0003448  14.1963  85.4683 15.73240665  4164,6727.779,91.531,351.964,347.325,0.0
54199.0,STARLINK-5244,PAYLOAD,2022-11-21 22:00:00,15.73190312,0.00034,53.2187,20.7863,14.1478,197.7693,0.00011159,0.00015063,0.0,0 STARLINK-5244,1 54199U 22141AU  22325.91667824  .00015063  00000-0  11159-3 0  9990,2 54199  53.2187  20.7863 0003400  14.1478 197.7693 15.73190312  1302,6727.9230000000025,91.534,352.075,347.5,0.0
54199.0,STARLINK-5244,PAYLOAD,2022-11-22 06:00:02,15.73253415,0.0003307,53.2186,19.1372,13.0072,287.8866,-0.00065351,-0.00091588,0.0,0 STARLINK-5244,1 54199U 22141AU  22326.25002315 -.00091588  00000-0 -65351-3 0  9997,2 54199  53.2186  19.1372 0003307  13.0072 287.8866 15.73253415  4223,6727.743,91.53,351.833,347.3830000000001,0.0
54199.0,STARLINK-5244,PAYLOAD,2022-11-22 14:00:01,15.73176074,0.0003577,53.2182,17.4895,9.9831,19.8631,0.00018776,0.00025789,0.0,0 STARLINK-5244,1 54199U 22141AU  22326.58335648  .00025789  00000-0  18776-3 0  9998,2 54199  53.2182  17.4895 0003577   9.9831  19.8631 15.73176074  1300,6727.9630000000025,91.535,352.235,347.422,0.0
54199.0,STARLINK-5244,PAYLOAD,2022-11-22 20:00:01,15.73190964,0.0003423,53.2183,16.250999999999998,9.1166,357.3472,-0.00028018,-0.00039758,0.0,0 STARLINK-5244,1 54199U 22141AU  22326.83334491 -.00039758  00000-0 -28018-3 0  9994,2 54199  53.2183  16.2510 0003423   9.1166 357.3472 15.73190964  4327,6727.920999999999,91.534,352.089,347.483,0.0
